ONEWEB-0208             
1 48243U 21031AK  24204.12847503 -.00001785  00000+0 -48503-2 0  9994
2 48243  87.8934  67.9721 0001576  83.5855 276.5454 13.14509967156995
ONEWEB-0200             
1 48244U 21031AL  24205.08151852  .00000254  00000+0  64976-3 0  9997
2 48244  87.8934  67.7789 0001506  81.5948 278.5352 13.14504111157055
ONEWEB-0217             
1 48245U 21031AM  24204.18396016 -.00000169  00000+0 -48948-3 0  9999
2 48245  87.8935  67.9422 0001404  79.7537 280.3751 13.14504316156873
ONEWEB-0211             
1 48767U 21045A   24204.91978877  .00000229  00000+0  57397-3 0  9998
2 48767  87.9015  37.3313 0001740  83.9934 276.1395 13.15549660153138
ONEWEB-0223             
1 48768U 21045B   24204.94195737 -.00000026  00000+0 -10359-3 0  9992
2 48768  87.9020  37.3350 0001594  63.9247 296.2047 13.15550719153121
ONEWEB-0230             
1 48769U 21045C   24205.06556347  .00000225  00000+0  56282-3 0  9999
2 48769  87.9018  37.3808 0001882  84.3207 275.8138 13.15548924154513
ONEWEB-0237             
1 48770U 21045D   24204.90234569  .00000078  00000+0  17299-3 0  9993
2 48770  87.9023  37.3466 0001650  73.5756 286.5556 13.15550248153102
ONEWEB-0235             
1 48771U 21045E   24204.95306015 -.00000030  00000+0 -11290-3 0  9990
2 48771  87.9016  37.3436 0001753  62.3306 297.8002 13.15549217153108
ONEWEB-0242             
1 48772U 21045F   24205.09883839 -.00000086  00000+0 -26330-3 0  9993
2 48772  87.9013  37.3027 0001853  80.5167 279.6173 13.15549233154296
ONEWEB-0241             
1 48773U 21045G   24204.93404311  .00000036  00000+0  62840-4 0  9990
2 48773  87.9025  37.3858 0001399  77.9933 282.1354 13.15549429153058
ONEWEB-0243             
1 48774U 21045H   24204.43334297  .00000052  00000+0  10439-3 0  9995
2 48774  87.9025  37.4449 0001763  66.4755 293.6561 13.15548474153018
ONEWEB-0222             
1 48775U 21045J   24204.94910318 -.00000009  00000+0 -59268-4 0  9994
2 48775  87.9016  37.3422 0001596  81.1245 279.0066 13.15549228153129
ONEWEB-0244             
1 48776U 21045K   24204.89917719  .00000091  00000+0  20657-3 0  9999
2 48776  87.9012  37.3341 0001876  81.4869 278.6474 13.15549954153687
ONEWEB-0247             
1 48777U 21045L   24204.89602039  .00000037  00000+0  64894-4 0  9998
2 48777  87.9020  37.3781 0001964  53.0302 307.1008 13.15547631153120
ONEWEB-0245             
1 48778U 21045M   24204.43491942  .00000093  00000+0  21228-3 0  9993
2 48778  87.9013  37.4576 0001526  85.6403 274.4901 13.15548299154167
ONEWEB-0229             
1 48779U 21045N   24205.03862128  .00000015  00000+0  50787-5 0  9997
2 48779  87.9015  37.3313 0001822  82.2426 277.8911 13.15549900154275
ONEWEB-0228             
1 48780U 21045P   24205.06615189  .00000223  00000+0  56301-3 0  9992
2 48780  87.9011  37.3062 0001754  82.4885 277.6445 13.15071234154190
ONEWEB-0232             
1 48781U 21045Q   24205.04655810  .00000133  00000+0  31851-3 0  9999
2 48781  87.9007  37.3239 0001756  82.2435 277.8895 13.15549014154505
ONEWEB-0231             
1 48782U 21045R   24204.94830875 -.00000019  00000+0 -84982-4 0  9993
2 48782  87.9024  37.3788 0001727  77.3399 282.7924 13.15548837153066
ONEWEB-0234             
1 48783U 21045S   24205.04417166  .00000076  00000+0  16733-3 0  9999
2 48783  87.9015  37.3161 0001722 132.0997 228.0279 13.15548585154348
ONEWEB-0238             
1 48784U 21045T   24204.92218030  .00000176  00000+0  43289-3 0  9992
2 48784  87.9016  37.3582 0001735  92.0027 268.1302 13.15549489153097
ONEWEB-0240             
1 48785U 21045U   24204.93167332  .00000095  00000+0  21755-3 0  9996
2 48785  87.9016  37.3235 0001423  77.8212 282.3077 13.15548914153127
ONEWEB-0246             
1 48786U 21045V   24204.92611322  .00000254  00000+0  63965-3 0  9995
2 48786  87.9023  37.3300 0002065  83.0142 277.1224 13.15543651152996
ONEWEB-0210             
1 48787U 21045W   24205.05288866  .00000211  00000+0  52669-3 0  9996
2 48787  87.9014  37.3087 0002098  62.8200 297.3144 13.15548835154182
ONEWEB-0214             
1 48788U 21045X   24204.91028171  .00000218  00000+0  54422-3 0  9998
2 48788  87.9015  37.3262 0002175  72.4670 287.6698 13.15548622153003
ONEWEB-0221             
1 48789U 21045Y   24205.06872174  .00000183  00000+0  45129-3 0  9991
2 48789  87.9018  37.3135 0001595  79.8606 280.2704 13.15550473154253
ONEWEB-0213             
1 48790U 21045Z   24204.06889219  .00000205  00000+0  51004-3 0  9994
2 48790  87.9017  37.5258 0001648  73.8052 286.3260 13.15548876153044
ONEWEB-0212             
1 48791U 21045AA  24205.03466411 -.00000074  00000+0 -23031-3 0  9993
2 48791  87.9018  37.3166 0001713  89.3263 270.8064 13.15548739154309
ONEWEB-0227             
1 48792U 21045AB  24205.03387219 -.00000098  00000+0 -29366-3 0  9995
2 48792  87.9017  37.3320 0001631  82.4742 277.6573 13.15548589154242
ONEWEB-0226             
1 48793U 21045AC  24205.02753393 -.00000002  00000+0 -39322-4 0  9994
2 48793  87.9015  37.3397 0001859  70.0549 290.0782 13.15548737154207
ONEWEB-0224             
1 48794U 21045AD  24205.06714598  .00000228  00000+0  57168-3 0  9998
2 48794  87.9021  37.3544 0000643  95.8019 264.3185 13.15548797154135
ONEWEB-0233             
1 48795U 21045AE  24204.92056861  .00000217  00000+0  54187-3 0  9991
2 48795  87.9019  37.3981 0001515  80.1516 279.9785 13.15550955153019
ONEWEB-0190             
1 48796U 21045AF  24205.05922342  .00000181  00000+0  44596-3 0  9996
2 48796  87.9020  37.3300 0001649  52.9826 307.1455 13.15549131154222
ONEWEB-0236             
1 48797U 21045AG  24204.92454040  .00000167  00000+0  40896-3 0  9990
2 48797  87.9026  37.3521 0001616  85.1260 275.0055 13.15549776152972
ONEWEB-0248             
1 48798U 21045AH  24204.93721478  .00000020  00000+0  20297-4 0  9996
2 48798  87.9016  37.3372 0001095  69.0245 291.1002 13.15549093153133
ONEWEB-0225             
1 48799U 21045AJ  24204.42699716  .00000047  00000+0  90028-4 0  9998
2 48799  87.9019  37.4524 0001563  71.2546 288.8754 13.15548298153072
ONEWEB-0215             
1 48800U 21045AK  24204.92928891  .00000071  00000+0  15573-3 0  9993
2 48800  87.9015  37.3244 0001275  56.8196 303.3056 13.15549866153013
ONEWEB-0216             
1 48801U 21045AL  24205.09091558 -.00000037  00000+0 -13142-3 0  9998
2 48801  87.9015  37.3336 0001994  80.7876 279.3480 13.15548647154161
ONEWEB-0239             
1 48802U 21045AM  24204.94354944  .00000002  00000+0 -28989-4 0  9990
2 48802  87.9026  37.3419 0001023  59.0827 301.0403 13.15549691153060
ONEWEB-0249             
1 48967U 21060A   24204.89587665  .00000102  00000+0  23243-3 0  9998
2 48967  87.9117   6.9992 0001789  92.7649 267.3686 13.16594619148259
ONEWEB-0250             
1 48968U 21060B   24204.97464291  .00000106  00000+0  24142-3 0  9990
2 48968  87.9117   6.9655 0001496  86.2291 273.9011 13.17114694149531
ONEWEB-0252             
1 48970U 21060D   24204.92754508 -.00000003  00000+0 -41657-4 0  9990
2 48970  87.9117   6.9857 0001878  87.7027 272.4319 13.16594805148309
ONEWEB-0253             
1 48971U 21060E   24204.91646099  .00000063  00000+0  13000-3 0  9999
2 48971  87.9114   6.9995 0001651  82.0110 278.1208 13.16595303148236
ONEWEB-0254             
1 48972U 21060F   24204.92596170  .00000021  00000+0  20533-4 0  9999
2 48972  87.9116   6.9758 0001644  82.7648 277.3670 13.16595070148236
ONEWEB-0255             
1 48973U 21060G   24205.19194659 -.00000005  00000+0 -45512-4 0  9994
2 48973  87.9117   6.9575 0001745  93.8734 266.2597 13.16593365149631
ONEWEB-0256             
1 48974U 21060H   24204.99007387  .00000124  00000+0  29189-3 0  9994
2 48974  87.9119   7.0021 0001960  91.2535 268.8820 13.16592911149578
ONEWEB-0257             
1 48975U 21060J   24205.02253208  .00000047  00000+0  90294-4 0  9995
2 48975  87.9118   6.9652 0001878  87.4684 272.6661 13.16593042149534
ONEWEB-0258             
1 48976U 21060K   24204.94810633 -.00000313  00000+0 -85264-3 0  9995
2 48976  87.9116   7.0087 0001733  94.1287 266.0042 13.16593977149527
ONEWEB-0259             
1 48977U 21060L   24205.01776743 -.00000038  00000+0 -13256-3 0  9994
2 48977  87.9115   6.9791 0001529  91.9917 268.1389 13.16592780149578
ONEWEB-0260             
1 48978U 21060M   24204.93307946 -.00000252  00000+0 -69411-3 0  9992
2 48978  87.9116   7.0247 0002335  83.4272 276.7124 13.16594534148259
ONEWEB-0261             
1 48979U 21060N   24204.90221030  .00000102  00000+0  23221-3 0  9990
2 48979  87.9121   7.0258 0001717  73.3522 286.7798 13.16594591148304
ONEWEB-0262             
1 48980U 21060P   24205.18719662 -.00000018  00000+0 -80799-4 0  9998
2 48980  87.9117   6.9323 0001309  87.9976 272.1305 13.16595271149606
ONEWEB-0263             
1 48981U 21060Q   24204.91487709  .00000109  00000+0  25195-3 0  9990
2 48981  87.9119   7.0038 0001494  76.6334 283.4964 13.16594483148230
ONEWEB-0264             
1 48982U 21060R   24204.95208018  .00000010  00000+0 -75627-5 0  9998
2 48982  87.9118   7.0076 0001768  90.3333 269.8000 13.16596285148240
ONEWEB-0266             
1 48984U 21060T   24204.89746113  .00000092  00000+0  20621-3 0  9997
2 48984  87.9117   6.9952 0001760  95.3189 264.8143 13.16594144148221
ONEWEB-0267             
1 48985U 21060U   24205.21253309  .00000031  00000+0  46970-4 0  9994
2 48985  87.9116   6.9340 0001773  78.5447 281.5883 13.16593887149564
ONEWEB-0268             
1 48986U 21060V   24204.95287903  .00002300  00000+0  59819-2 0  9997
2 48986  87.9115   6.9911 0001852  90.1366 269.9977 13.16590510148503
ONEWEB-0269             
1 48987U 21060W   24204.93387667 -.00000012  00000+0 -65176-4 0  9999
2 48987  87.9119   7.0219 0001879  94.5731 265.5615 13.16595692148275
ONEWEB-0270             
1 48988U 21060X   24204.95129262  .00000011  00000+0 -60368-5 0  9994
2 48988  87.9114   6.9999 0001435  76.4349 283.6942 13.16594463148310
